BEIDOU-3S IGSO-1S       
1 40549U 15019A   26183.74702704 -.00000143  00000+0  00000+0 0  9996
2 40549  49.1658 295.2758 0039341 192.3032 152.1200  1.00248556 41226
NAVSTAR 74 (USA 262)    
1 40730U 15033A   26184.67477056 -.00000007  00000+0  00000+0 0  9995
2 40730  53.9698 266.4064 0115207  30.2637 330.4699  2.00555445 80328
BEIDOU-3S M2S           
1 40748U 15037A   26183.35796067 -.00000061  00000+0  00000+0 0  9998
2 40748  54.8565 301.5241 0008940 257.9536 101.9638  1.86232514 74407
BEIDOU-3S M1S           
1 40749U 15037B   26182.48973792 -.00000065  00000+0  00000+0 0  9998
2 40749  54.8538 301.5415 0003101  62.8434 297.2018  1.86255000 74399
GSAT0206 (GALILEO 10)   
1 40890U 15045B   26182.53529488  .00000074  00000+0  00000+0 0  9998
2 40890  54.9416 221.2080 0001620 340.3144  19.7690  1.70473858 67283
BEIDOU-3S IGSO-2S       
1 40938U 15053A   26184.67606626 -.00000100  00000+0  00000+0 0  9998
2 40938  49.1955 258.5862 0065740 193.2527 167.4360  1.00256009 39525
NAVSTAR 75 (USA 265)    
1 41019U 15062A   26184.73013673 -.00000057  00000+0  00000+0 0  9991
2 41019  56.9706  30.1743 0112421 230.9346 128.1135  2.00567049 78162
GSAT-15                 
1 41028U 15065A   26183.70805642 -.00000247  00000+0  00000+0 0  9996
2 41028   0.0419 250.8690 0004439 191.0709 187.1953  1.00270279 38955
GSAT0209 (GALILEO 12)   
1 41174U 15079A   26179.18392164 -.00000033  00000+0  00000+0 0  9993
2 41174  55.8335 100.9603 0005085 347.1897  12.7761  1.70473803 64966
GSAT0208 (GALILEO 11)   
1 41175U 15079B   26182.92381336 -.00000013  00000+0  00000+0 0  9997
2 41175  55.8336 100.8547 0004614 354.4374   5.5610  1.70473736 65444
IRNSS-1E                
1 41241U 16003A   26180.82733131 -.00000310  00000+0  00000+0 0  9990
2 41241  33.2608  59.5670 0019200 178.7998  89.1855  1.00272765 38208
NAVSTAR 76 (USA 266)    
1 41328U 16007A   26180.83338311 -.00000037  00000+0  00000+0 0  9998
2 41328  55.5312  88.9584 0095643 247.1499 111.8568  2.00551193 76094
COSMOS 2514 [GLONASS-M] 
1 41330U 16008A   26184.70928353 -.00000044  00000+0  00000+0 0  9991
2 41330  65.0109 312.4399 0011921 199.8976 160.0650  2.13102677 80979
BEIDOU-2 IGSO-6         
1 41434U 16021A   26177.11016981 -.00000145  00000+0  00000+0 0  9995
2 41434  60.2385  37.9495 0057558 231.0163 137.2672  1.00258926 37578
IRNSS-1G                
1 41469U 16027A   26184.91441626 -.00000324  00000+0  00000+0 0  9992
2 41469   5.2359  97.0888 0005800   6.9123 276.6835  1.00278983 37346
GSAT0211 (GALILEO 14)   
1 41549U 16030A   26178.94152421  .00000069  00000+0  00000+0 0  9998
2 41549  55.0927 221.3989 0003116 320.4926  39.5816  1.70474008 62858
GSAT0210 (GALILEO 13)   
1 41550U 16030B   26184.47800542  .00000074  00000+0  00000+0 0  9995
2 41550  55.0896 221.2446 0008960 258.8551 101.1239  1.70473811 62948
BEIDOU-2 G7             
1 41586U 16037A   26185.06364170 -.00000342  00000+0  00000+0 0  9998
2 41586   1.7595  69.4459 0006710   4.4017 341.6680  1.00268629  7054
EUTELSAT 117 WEST B     
1 41589U 16038B   26183.63071992  .00000000  00000+0  00000+0 0  9990
2 41589   0.0082 201.6637 0000328 106.1903  82.8636  1.00268475 36811
GSAT0207 (GALILEO 15)   
1 41859U 16069A   26177.71738502 -.00000038  00000+0  00000+0 0  9995
2 41859  55.5042 100.8225 0005006 333.0982  26.8500  1.70473700 59562
GSAT0212 (GALILEO 16)   
1 41860U 16069B   26179.33057380 -.00000033  00000+0  00000+0 0  9990
2 41860  55.5028 100.7730 0004434   6.1382 353.8467  1.70473934 59849
GSAT0213 (GALILEO 17)   
1 41861U 16069C   26179.11118849 -.00000034  00000+0  00000+0 0  9996
2 41861  55.5047 100.7870 0004537 315.9585  43.9839  1.70474290 59707
GSAT0214 (GALILEO 18)   
1 41862U 16069D   26182.19038912 -.00000017  00000+0  00000+0 0  9992
2 41862  55.5050 100.6945 0003556 328.0660  31.9108  1.70473880 59882
SES-15                  
1 42709U 17026A   26183.69960315  .00000071  00000+0  00000+0 0  9993
2 42709   0.0224 333.2991 0000649 116.3241 313.8103  1.00268893  7585
QZS-2 (MICHIBIKI-2)     
1 42738U 17028A   26184.47336514 -.00000107  00000+0  00000+0 0  9993
2 42738  39.4029 242.9137 0758568 269.4566  81.7440  1.00279734  7787
QZS-3 (MICHIBIKI-3)     
1 42917U 17048A   26185.03350576 -.00000336  00000+0  00000+0 0  9995
2 42917   0.0780 132.4069 0002173 329.6707 319.0396  1.00268021 32424
COSMOS 2522 [GLONASS-M] 
1 42939U 17055A   26184.54697543  .00000087  00000+0  00000+0 0  9992
2 42939  64.0801 191.3275 0010919 240.7350 119.1829  2.13102029 68327
QZS-4 (MICHIBIKI-4)     
1 42965U 17062A   26184.75246353 -.00000312  00000+0  00000+0 0  9993
2 42965  40.1000 343.2760 0746909 268.3365  79.4461  1.00294465 31967
BEIDOU-3 M1             
1 43001U 17069A   26184.24174458 -.00000036  00000+0  00000+0 0  9995
2 43001  56.7055  62.5561 0009679 326.7179  33.2911  1.86231596 58901
BEIDOU-3 M2             
1 43002U 17069B   26182.56966369 -.00000040  00000+0  00000+0 0  9994
2 43002  56.7035  62.6467 0008730 353.7874   6.2692  1.86230997 58860
GSAT0215 (GALILEO 19)   
1 43055U 17079A   26183.26668362  .00000074  00000+0  00000+0 0  9999
2 43055  55.0700 221.0915 0004952 269.1810  90.8482  1.70474379 53240
